CCSDS_OMM_VERS = 2.0
CREATION_DATE  = 
ORIGINATOR     = 

OBJECT_NAME    = STARLINK-35930
OBJECT_ID      = 2025-270M
CENTER_NAME    = EARTH
REF_FRAME      = TEME
TIME_SYSTEM    = UTC
MEAN_ELEMENT_THEORY = SGP/SGP4

EPOCH          = 2025-12-10T06:00:02.000160
MEAN_MOTION    = 15.52650187
ECCENTRICITY   = .00015295
INCLINATION    = 42.9998
RA_OF_ASC_NODE = 207.2489
ARG_OF_PERICENTER = 257.8101
MEAN_ANOMALY   = 274.5120

EPHEMERIS_TYPE = 0
CLASSIFICATION_TYPE = U
NORAD_CAT_ID   = 66599
ELEMENT_SET_NO = 999
REV_AT_EPOCH   = 400
BSTAR          = -.38412466E-1
MEAN_MOTION_DOT = -.2150639E-1
MEAN_MOTION_DDOT = 0

CCSDS_OMM_VERS = 2.0
CREATION_DATE  = 
ORIGINATOR     = 

OBJECT_NAME    = STARLINK-35980
OBJECT_ID      = 2025-270N
CENTER_NAME    = EARTH
REF_FRAME      = TEME
TIME_SYSTEM    = UTC
MEAN_ELEMENT_THEORY = SGP/SGP4

EPOCH          = 2025-12-10T06:00:02.000160
MEAN_MOTION    = 15.52664646
ECCENTRICITY   = .00013409
INCLINATION    = 43.0000
RA_OF_ASC_NODE = 207.2441
ARG_OF_PERICENTER = 258.5379
MEAN_ANOMALY   = 275.6983

EPHEMERIS_TYPE = 0
CLASSIFICATION_TYPE = U
NORAD_CAT_ID   = 66600
ELEMENT_SET_NO = 999
REV_AT_EPOCH   = 390
BSTAR          = -.38585291E-1
MEAN_MOTION_DOT = -.2160083E-1
MEAN_MOTION_DDOT = 0

CCSDS_OMM_VERS = 2.0
CREATION_DATE  = 
ORIGINATOR     = 

OBJECT_NAME    = STARLINK-35978
OBJECT_ID      = 2025-270P
CENTER_NAME    = EARTH
REF_FRAME      = TEME
TIME_SYSTEM    = UTC
MEAN_ELEMENT_THEORY = SGP/SGP4

EPOCH          = 2025-12-10T06:00:02.000160
MEAN_MOTION    = 15.52666097
ECCENTRICITY   = .00014156
INCLINATION    = 42.9999
RA_OF_ASC_NODE = 207.2389
ARG_OF_PERICENTER = 255.6513
MEAN_ANOMALY   = 280.5028

EPHEMERIS_TYPE = 0
CLASSIFICATION_TYPE = U
NORAD_CAT_ID   = 66601
ELEMENT_SET_NO = 999
REV_AT_EPOCH   = 384
BSTAR          = -.38666928E-1
MEAN_MOTION_DOT = -.2164279E-1
MEAN_MOTION_DDOT = 0

CCSDS_OMM_VERS = 2.0
CREATION_DATE  = 
ORIGINATOR     = 

OBJECT_NAME    = STARLINK-36050
OBJECT_ID      = 2025-270Q
CENTER_NAME    = EARTH
REF_FRAME      = TEME
TIME_SYSTEM    = UTC
MEAN_ELEMENT_THEORY = SGP/SGP4

EPOCH          = 2025-12-10T06:00:02.000160
MEAN_MOTION    = 15.52629683
ECCENTRICITY   = .00012635
INCLINATION    = 42.9999
RA_OF_ASC_NODE = 207.2339
ARG_OF_PERICENTER = 256.6191
MEAN_ANOMALY   = 281.4852

EPHEMERIS_TYPE = 0
CLASSIFICATION_TYPE = U
NORAD_CAT_ID   = 66602
ELEMENT_SET_NO = 999
REV_AT_EPOCH   = 390
BSTAR          = -.3809147E-1
MEAN_MOTION_DOT = -.2133113E-1
MEAN_MOTION_DDOT = 0

CCSDS_OMM_VERS = 2.0
CREATION_DATE  = 
ORIGINATOR     = 

OBJECT_NAME    = STARLINK-36048
OBJECT_ID      = 2025-270R
CENTER_NAME    = EARTH
REF_FRAME      = TEME
TIME_SYSTEM    = UTC
MEAN_ELEMENT_THEORY = SGP/SGP4

EPOCH          = 2025-12-10T06:00:02.000160
MEAN_MOTION    = 15.52698449
ECCENTRICITY   = .00013415
INCLINATION    = 43.0001
RA_OF_ASC_NODE = 207.2294
ARG_OF_PERICENTER = 248.3028
MEAN_ANOMALY   = 291.6773

EPHEMERIS_TYPE = 0
CLASSIFICATION_TYPE = U
NORAD_CAT_ID   = 66603
ELEMENT_SET_NO = 999
REV_AT_EPOCH   = 390
BSTAR          = -.39627421E-1
MEAN_MOTION_DOT = -.2213947E-1
MEAN_MOTION_DDOT = 0

CCSDS_OMM_VERS = 2.0
CREATION_DATE  = 
ORIGINATOR     = 

OBJECT_NAME    = STARLINK-35977
OBJECT_ID      = 2025-270S
CENTER_NAME    = EARTH
REF_FRAME      = TEME
TIME_SYSTEM    = UTC
MEAN_ELEMENT_THEORY = SGP/SGP4

EPOCH          = 2025-12-10T06:00:02.000160
MEAN_MOTION    = 15.52698434
ECCENTRICITY   = .00012756
INCLINATION    = 43.0000
RA_OF_ASC_NODE = 207.2245
ARG_OF_PERICENTER = 248.6657
MEAN_ANOMALY   = 293.2298

EPHEMERIS_TYPE = 0
CLASSIFICATION_TYPE = U
NORAD_CAT_ID   = 66604
ELEMENT_SET_NO = 999
REV_AT_EPOCH   = 400
BSTAR          = -.39586837E-1
MEAN_MOTION_DOT = -.22119E-1
MEAN_MOTION_DDOT = 0

CCSDS_OMM_VERS = 2.0
CREATION_DATE  = 
ORIGINATOR     = 

OBJECT_NAME    = STARLINK-36052
OBJECT_ID      = 2025-270T
CENTER_NAME    = EARTH
REF_FRAME      = TEME
TIME_SYSTEM    = UTC
MEAN_ELEMENT_THEORY = SGP/SGP4

EPOCH          = 2025-12-10T06:00:02.000160
MEAN_MOTION    = 15.52669959
ECCENTRICITY   = .00013181
INCLINATION    = 42.9998
RA_OF_ASC_NODE = 207.2198
ARG_OF_PERICENTER = 256.2614
MEAN_ANOMALY   = 287.5596

EPHEMERIS_TYPE = 0
CLASSIFICATION_TYPE = U
NORAD_CAT_ID   = 66605
ELEMENT_SET_NO = 999
REV_AT_EPOCH   = 400
BSTAR          = -.38757825E-1
MEAN_MOTION_DOT = -.2168983E-1
MEAN_MOTION_DDOT = 0

CCSDS_OMM_VERS = 2.0
CREATION_DATE  = 
ORIGINATOR     = 

OBJECT_NAME    = STARLINK-36063
OBJECT_ID      = 2025-270U
CENTER_NAME    = EARTH
REF_FRAME      = TEME
TIME_SYSTEM    = UTC
MEAN_ELEMENT_THEORY = SGP/SGP4

EPOCH          = 2025-12-10T06:00:02.000160
MEAN_MOTION    = 15.52704120
ECCENTRICITY   = .00013036
INCLINATION    = 43.0000
RA_OF_ASC_NODE = 207.2100
ARG_OF_PERICENTER = 248.6787
MEAN_ANOMALY   = 298.9686

EPHEMERIS_TYPE = 0
CLASSIFICATION_TYPE = U
NORAD_CAT_ID   = 66606
ELEMENT_SET_NO = 999
REV_AT_EPOCH   = 400
BSTAR          = -.39787558E-1
MEAN_MOTION_DOT = -.2222208E-1
MEAN_MOTION_DDOT = 0

CCSDS_OMM_VERS = 2.0
CREATION_DATE  = 
ORIGINATOR     = 

OBJECT_NAME    = STARLINK-35993
OBJECT_ID      = 2025-270V
CENTER_NAME    = EARTH
REF_FRAME      = TEME
TIME_SYSTEM    = UTC
MEAN_ELEMENT_THEORY = SGP/SGP4

EPOCH          = 2025-12-10T06:00:02.000160
MEAN_MOTION    = 15.52667801
ECCENTRICITY   = .00013304
INCLINATION    = 43.0000
RA_OF_ASC_NODE = 207.2150
ARG_OF_PERICENTER = 255.2371
MEAN_ANOMALY   = 290.5016

EPHEMERIS_TYPE = 0
CLASSIFICATION_TYPE = U
NORAD_CAT_ID   = 66607
ELEMENT_SET_NO = 999
REV_AT_EPOCH   = 390
BSTAR          = -.38704626E-1
MEAN_MOTION_DOT = -.2166206E-1
MEAN_MOTION_DDOT = 0

CCSDS_OMM_VERS = 2.0
CREATION_DATE  = 
ORIGINATOR     = 

OBJECT_NAME    = STARLINK-36036
OBJECT_ID      = 2025-270W
CENTER_NAME    = EARTH
REF_FRAME      = TEME
TIME_SYSTEM    = UTC
MEAN_ELEMENT_THEORY = SGP/SGP4

EPOCH          = 2025-12-10T06:00:02.000160
MEAN_MOTION    = 15.52706967
ECCENTRICITY   = .00012769
INCLINATION    = 42.9998
RA_OF_ASC_NODE = 207.2056
ARG_OF_PERICENTER = 250.8827
MEAN_ANOMALY   = 298.6779

EPHEMERIS_TYPE = 0
CLASSIFICATION_TYPE = U
NORAD_CAT_ID   = 66608
ELEMENT_SET_NO = 999
REV_AT_EPOCH   = 384
BSTAR          = -.39821044E-1
MEAN_MOTION_DOT = -.2224041E-1
MEAN_MOTION_DDOT = 0

CCSDS_OMM_VERS = 2.0
CREATION_DATE  = 
ORIGINATOR     = 

OBJECT_NAME    = STARLINK-36034
OBJECT_ID      = 2025-270X
CENTER_NAME    = EARTH
REF_FRAME      = TEME
TIME_SYSTEM    = UTC
MEAN_ELEMENT_THEORY = SGP/SGP4

EPOCH          = 2025-12-10T06:00:02.000160
MEAN_MOTION    = 15.52666445
ECCENTRICITY   = .00014825
INCLINATION    = 43.0002
RA_OF_ASC_NODE = 207.2010
ARG_OF_PERICENTER = 252.8282
MEAN_ANOMALY   = 298.6630

EPHEMERIS_TYPE = 0
CLASSIFICATION_TYPE = U
NORAD_CAT_ID   = 66609
ELEMENT_SET_NO = 999
REV_AT_EPOCH   = 384
BSTAR          = -.38748189E-1
MEAN_MOTION_DOT = -.2168372E-1
MEAN_MOTION_DDOT = 0

CCSDS_OMM_VERS = 2.0
CREATION_DATE  = 
ORIGINATOR     = 

OBJECT_NAME    = STARLINK-35680
OBJECT_ID      = 2025-270Y
CENTER_NAME    = EARTH
REF_FRAME      = TEME
TIME_SYSTEM    = UTC
MEAN_ELEMENT_THEORY = SGP/SGP4

EPOCH          = 2025-12-10T06:00:02.000160
MEAN_MOTION    = 15.52671646
ECCENTRICITY   = .00014156
INCLINATION    = 42.9999
RA_OF_ASC_NODE = 207.1957
ARG_OF_PERICENTER = 256.7314
MEAN_ANOMALY   = 296.6739

EPHEMERIS_TYPE = 0
CLASSIFICATION_TYPE = U
NORAD_CAT_ID   = 66610
ELEMENT_SET_NO = 999
REV_AT_EPOCH   = 410
BSTAR          = -.38808019E-1
MEAN_MOTION_DOT = -.2171652E-1
MEAN_MOTION_DDOT = 0

