STARLINK-35930          
1 66599U 25270M   25344.25002315 -.02150639  00000+0 -38412-1 0  9993
2 66599  42.9998 207.2489 0001529 257.8101 274.5120 15.52650187  4006
STARLINK-35980          
1 66600U 25270N   25344.25002315 -.02160083  00000+0 -38585-1 0  9991
2 66600  43.0000 207.2441 0001340 258.5379 275.6983 15.52664646  3901
STARLINK-35978          
1 66601U 25270P   25344.25002315 -.02164279  00000+0 -38667-1 0  9994
2 66601  42.9999 207.2389 0001415 255.6513 280.5028 15.52666097  3849
STARLINK-36050          
1 66602U 25270Q   25344.25002315 -.02133113  00000+0 -38091-1 0  9999
2 66602  42.9999 207.2339 0001263 256.6191 281.4852 15.52629683  3901
STARLINK-36048          
1 66603U 25270R   25344.25002315 -.02213947  00000+0 -39627-1 0  9990
2 66603  43.0001 207.2294 0001341 248.3028 291.6773 15.52698449  3903
STARLINK-35977          
1 66604U 25270S   25344.25002315 -.02211900  00000+0 -39587-1 0  9993
2 66604  43.0000 207.2245 0001275 248.6657 293.2298 15.52698434  4002
STARLINK-36052          
1 66605U 25270T   25344.25002315 -.02168983  00000+0 -38758-1 0  9995
2 66605  42.9998 207.2198 0001318 256.2614 287.5596 15.52669959  4007
STARLINK-36063          
1 66606U 25270U   25344.25002315 -.02222208  00000+0 -39788-1 0  9991
2 66606  43.0000 207.2100 0001303 248.6787 298.9686 15.52704120  4003
STARLINK-35993          
1 66607U 25270V   25344.25002315 -.02166206  00000+0 -38705-1 0  9995
2 66607  43.0000 207.2150 0001330 255.2371 290.5016 15.52667801  3909
STARLINK-36036          
1 66608U 25270W   25344.25002315 -.02224041  00000+0 -39821-1 0  9998
2 66608  42.9998 207.2056 0001276 250.8827 298.6779 15.52706967  3840
STARLINK-36034          
1 66609U 25270X   25344.25002315 -.02168372  00000+0 -38748-1 0  9990
2 66609  43.0002 207.2010 0001482 252.8282 298.6630 15.52666445  3847
STARLINK-35680          
1 66610U 25270Y   25344.25002315 -.02171652  00000+0 -38808-1 0  9994
2 66610  42.9999 207.1957 0001415 256.7314 296.6739 15.52671646  4103
